GPS BIIA-23 (PRN 18)    
1 22877U 93068A   19019.51801325 -.00000029  00000-0  00000-0 0  9999
2 22877  54.5777  74.6342 0147439  78.3123 287.1681  2.00571725184893
GPS BIIR-2  (PRN 13)    
1 24876U 97035A   19020.40661672  .00000086  00000-0  00000-0 0  9999
2 24876  55.4694 204.2515 0035098  78.4529 281.9559  2.00564334157707
GPS BIIR-3  (PRN 11)    
1 25933U 99055A   19020.75216900 -.00000043  00000-0  00000-0 0  9990
2 25933  52.0336  52.2249 0163649 106.6764  70.4506  2.00562033141331
GPS BIIR-4  (PRN 20)    
1 26360U 00025A   19020.82709994 -.00000010  00000-0  00000-0 0  9996
2 26360  53.2763 130.5862 0042776 130.6871 146.7153  2.00563079137024
GPS BIIR-5  (PRN 28)    
1 26407U 00040A   19020.83662049 -.00000049  00000-0  00000-0 0  9997
2 26407  56.3548 322.3725 0196746 275.1511 344.6130  2.00560930135703
GPS BIIR-6  (PRN 14)    
1 26605U 00071A   19020.57040088  .00000080  00000-0  00000-0 0  9999
2 26605  55.0435 201.7511 0102717 248.7808  89.2661  2.00564391133295
GPS BIIR-8  (PRN 16)    
1 27663U 03005A   19020.63268541 -.00000049  00000-0  00000-0 0  9993
2 27663  56.4168 322.1489 0103531  29.2833 201.4598  2.00553473117057
GPS BIIR-9  (PRN 21)    
1 27704U 03010A   19020.52728252 -.00000029  00000-0  00000-0 0  9991
2 27704  54.2519  74.1096 0249632 274.6156 208.5291  2.00577940115853
GPS BIIR-10 (PRN 22)    
1 28129U 03058A   19020.10219812 -.00000010  00000-0  00000-0 0  9996
2 28129  53.0886 133.4299 0073244 277.6714  81.4758  2.00571466110544
GPS BIIR-11 (PRN 19)    
1 28190U 04009A   19020.37151781 -.00000047  00000-0  00000-0 0  9990
2 28190  56.2396  22.9508 0091373  76.0607 118.3628  2.00570420108725
GPS BIIR-12 (PRN 23)    
1 28361U 04023A   19020.24273574  .00000076  00000-0  00000-0 0  9998
2 28361  54.0526 196.2839 0128812 228.5137 145.4768  2.00565130106815
GPS BIIR-13 (PRN 02)    
1 28474U 04045A   19020.86461664 -.00000028  00000-0  00000-0 0  9992
2 28474  54.6142  73.7927 0189895 257.8009 209.3908  2.00567840104193
GPS BIIRM-1 (PRN 17)    
1 28874U 05038A   19020.84376233 -.00000051  00000-0  00000-0 0  9990
2 28874  56.3703  20.2679 0132261 260.8636 299.1049  2.00563247 97590
GPS BIIRM-2 (PRN 31)    
1 29486U 06042A   19020.63334785  .00000059  00000-0  00000-0 0  9996
2 29486  55.0661 258.9546 0092698 356.7738 326.8154  2.00577798 90290
GPS BIIRM-3 (PRN 12)    
1 29601U 06052A   19020.62343795 -.00000048  00000-0  00000-0 0  9995
2 29601  56.3951 321.0657 0071332  57.7728 302.9248  2.00559303 89164
GPS BIIRM-4 (PRN 15)    
1 32260U 07047A   19020.43887963  .00000067  00000-0  00000-0 0  9994
2 32260  53.1762 192.1003 0110489  42.5549 318.2840  2.00568443 82588
GPS BIIRM-5 (PRN 29)    
1 32384U 07062A   19019.43899928 -.00000044  00000-0  00000-0 0  9996
2 32384  56.4502  20.9500 0003995  83.5416  51.7824  2.00575572 81305
GPS BIIRM-6 (PRN 07)    
1 32711U 08012A   19020.34668026  .00000062  00000-0  00000-0 0  9990
2 32711  54.8035 258.1909 0122876 218.7997 140.3998  2.00569955 79522
GPS BIIRM-8 (PRN 05)    
1 35752U 09043A   19020.80527354 -.00000005  00000-0  00000-0 0  9990
2 35752  54.3803 135.8805 0054131  39.5217 317.6259  2.00570218 69113
GPS BIIF-1  (PRN 25)    
1 36585U 10022A   19019.16060713 -.00000047  00000-0  00000-0 0  9998
2 36585  55.6793 317.5296 0078733  47.5607 309.5553  2.00552767 63311
GPS BIIF-2  (PRN 01)    
1 37753U 11036A   19020.66207763 -.00000024  00000-0  00000-0 0  9992
2 37753  55.8111  77.5878 0081448  38.0844  46.2018  2.00565217 55034
GPS BIIF-3  (PRN 24)    
1 38833U 12053A   19020.03004985  .00000067  00000-0  00000-0 0  9990
2 38833  53.8368 254.5490 0079505  32.0197 328.5497  2.00556265 46084
GPS BIIF-4  (PRN 27)    
1 39166U 13023A   19020.39311956 -.00000052  00000-0  00000-0 0  9991
2 39166  56.0589  17.1107 0064356  22.3297 337.9709  2.00568639 41626
GPS BIIF-5  (PRN 30)    
1 39533U 14008A   19020.38978199  .00000057  00000-0  00000-0 0  9994
2 39533  53.9731 259.9124 0036375 190.6892 169.3208  2.00567499 35452
GPS BIIF-6  (PRN 06)    
1 39741U 14026A   19020.17489309 -.00000025  00000-0  00000-0 0  9998
2 39741  55.7922  77.1320 0015895 288.3866  71.5111  2.00551333 34268
GPS BIIF-7  (PRN 09)    
1 40105U 14045A   19020.26138111  .00000078  00000-0  00000-0 0  9994
2 40105  54.5790 196.5059 0012540  98.6157 261.5258  2.00554305 32722
GPS BIIF-8  (PRN 03)    
1 40294U 14068A   19020.63117598 -.00000003  00000-0  00000-0 0  9994
2 40294  55.1322 137.3254 0017496  32.4769 327.6044  2.00572239 30966
GPS BIIF-9  (PRN 26)    
1 40534U 15013A   19020.27571441 -.00000045  00000-0  00000-0 0  9999
2 40534  54.6112 315.9820 0035372   1.9013 358.1276  2.00550372 28005
GPS BIIF-10  (PRN 08)   
1 40730U 15033A   19020.42838651 -.00000054  00000-0  00000-0 0  9995
2 40730  55.5859  16.5161 0042451 335.5032  24.3156  2.00562526 25769
GPS BIIF-11  (PRN 10)   
1 41019U 15062A   19019.98218993 -.00000004  00000-0  00000-0 0  9993
2 41019  55.1347 137.1618 0043262 203.6512 156.1235  2.00564440 23570
GPS BIIF-12  (PRN 32)   
1 41328U 16007A   19020.57396671  .00000075  00000-0  00000-0 0  9990
2 41328  54.8254 196.8430 0025996 213.6786 146.1538  2.00554734 21644
